{"type": "FeatureCollection", "features": [{"type": "Feature", "properties": {"norad_id": 25590, "name": "COSMOS 2361", "group": "musson", "lat": -4.806969125429217, "lon": -14.841027631802097, "alt_km": 988.8106944905658, "timestamp": "2025-12-10T11:33:53.655203+00:00", "meta": {"OBJECT_NAME": "COSMOS 2361", "OBJECT_ID": "1998-076A", "EPOCH": "2025-12-10T03:11:59.178048", "MEAN_MOTION": 13.7321707, "ECCENTRICITY": 0.0030056, "INCLINATION": 82.9338, "RA_OF_ASC_NODE": 346.0143, "ARG_OF_PERICENTER": 273.1666, "MEAN_ANOMALY": 159.6616, "EPHEMERIS_TYPE": 0, "CLASSIFICATION_TYPE": "U", "NORAD_CAT_ID": 25590, "ELEMENT_SET_NO": 999, "REV_AT_EPOCH": 35075, "BSTAR": 8.126e-05, "MEAN_MOTION_DOT": 9e-07, "MEAN_MOTION_DDOT": 0}, "tle": {"line1": "1 25590U 98076A   25344.13332382  .00000090  00000+0  81260-4 0  9993", "line2": "2 25590  82.9338 346.0143 0030056 273.1666 159.6616 13.73217070350757"}}, "geometry": {"type": "Point", "coordinates": [-14.841027631802097, -4.806969125429217]}}, {"type": "Feature", "properties": {"norad_id": 26818, "name": "COSMOS 2378", "group": "musson", "lat": 59.08135403206918, "lon": 13.362532025596026, "alt_km": 999.8667360963227, "timestamp": "2025-12-10T11:33:53.655223+00:00", "meta": {"OBJECT_NAME": "COSMOS 2378", "OBJECT_ID": "2001-023A", "EPOCH": "2025-12-10T04:37:33.598272", "MEAN_MOTION": 13.74141691, "ECCENTRICITY": 0.0032263, "INCLINATION": 82.9273, "RA_OF_ASC_NODE": 1.6136, "ARG_OF_PERICENTER": 212.0946, "MEAN_ANOMALY": 218.5089, "EPHEMERIS_TYPE": 0, "CLASSIFICATION_TYPE": "U", "NORAD_CAT_ID": 26818, "ELEMENT_SET_NO": 999, "REV_AT_EPOCH": 22888, "BSTAR": 5.555e-05, "MEAN_MOTION_DOT": 6.7e-07, "MEAN_MOTION_DDOT": 0}, "tle": {"line1": "1 26818U 01023A   25344.19274998  .00000067  00000+0  55550-4 0  9994", "line2": "2 26818  82.9273   1.6136 0032263 212.0946 218.5089 13.74141691228883"}}, "geometry": {"type": "Point", "coordinates": [13.362532025596026, 59.08135403206918]}}, {"type": "Feature", "properties": {"norad_id": 27436, "name": "COSMOS 2389", "group": "musson", "lat": -76.6763731001248, "lon": 160.15776369570582, "alt_km": 1022.8239992577292, "timestamp": "2025-12-10T11:33:53.655237+00:00", "meta": {"OBJECT_NAME": "COSMOS 2389", "OBJECT_ID": "2002-026A", "EPOCH": "2025-12-09T20:27:51.412032", "MEAN_MOTION": 13.75154194, "ECCENTRICITY": 0.004768, "INCLINATION": 82.95, "RA_OF_ASC_NODE": 309.122, "ARG_OF_PERICENTER": 68.5853, "MEAN_ANOMALY": 317.0736, "EPHEMERIS_TYPE": 0, "CLASSIFICATION_TYPE": "U", "NORAD_CAT_ID": 27436, "ELEMENT_SET_NO": 999, "REV_AT_EPOCH": 18109, "BSTAR": 9.4732e-05, "MEAN_MOTION_DOT": 1.07e-06, "MEAN_MOTION_DDOT": 0}, "tle": {"line1": "1 27436U 02026A   25343.85267838  .00000107  00000+0  94732-4 0  9992", "line2": "2 27436  82.9500 309.1220 0047680  68.5853 317.0736 13.75154194181091"}}, "geometry": {"type": "Point", "coordinates": [160.15776369570582, -76.6763731001248]}}, {"type": "Feature", "properties": {"norad_id": 27818, "name": "COSMOS 2398", "group": "musson", "lat": -53.70861368632888, "lon": 104.06568332620748, "alt_km": 1008.6093987409222, "timestamp": "2025-12-10T11:33:53.655249+00:00", "meta": {"OBJECT_NAME": "COSMOS 2398", "OBJECT_ID": "2003-023A", "EPOCH": "2025-12-10T04:00:14.728032", "MEAN_MOTION": 13.72385286, "ECCENTRICITY": 0.0032496, "INCLINATION": 82.9484, "RA_OF_ASC_NODE": 274.5942, "ARG_OF_PERICENTER": 118.6771, "MEAN_ANOMALY": 359.6474, "EPHEMERIS_TYPE": 0, "CLASSIFICATION_TYPE": "U", "NORAD_CAT_ID": 27818, "ELEMENT_SET_NO": 999, "REV_AT_EPOCH": 12781, "BSTAR": 9.1835e-05, "MEAN_MOTION_DOT": 1e-06, "MEAN_MOTION_DDOT": 0}, "tle": {"line1": "1 27818U 03023A   25344.16683713  .00000100  00000+0  91835-4 0  9997", "line2": "2 27818  82.9484 274.5942 0032496 118.6771 359.6474 13.72385286127813"}}, "geometry": {"type": "Point", "coordinates": [104.06568332620748, -53.70861368632888]}}, {"type": "Feature", "properties": {"norad_id": 28380, "name": "COSMOS 2407", "group": "musson", "lat": 37.14821711759626, "lon": -140.06472347307937, "alt_km": 946.9790145587804, "timestamp": "2025-12-10T11:33:53.655260+00:00", "meta": {"OBJECT_NAME": "COSMOS 2407", "OBJECT_ID": "2004-028A", "EPOCH": "2025-12-10T03:17:29.866272", "MEAN_MOTION": 13.76313261, "ECCENTRICITY": 0.0040411, "INCLINATION": 82.961, "RA_OF_ASC_NODE": 214.8195, "ARG_OF_PERICENTER": 61.9048, "MEAN_ANOMALY": 68.8154, "EPHEMERIS_TYPE": 0, "CLASSIFICATION_TYPE": "U", "NORAD_CAT_ID": 28380, "ELEMENT_SET_NO": 999, "REV_AT_EPOCH": 7387, "BSTAR": 7.3975e-05, "MEAN_MOTION_DOT": 8.8e-07, "MEAN_MOTION_DDOT": 0}, "tle": {"line1": "1 28380U 04028A   25344.13715123  .00000088  00000+0  73975-4 0  9996", "line2": "2 28380  82.9610 214.8195 0040411  61.9048  68.8154 13.76313261 73877"}}, "geometry": {"type": "Point", "coordinates": [-140.06472347307937, 37.14821711759626]}}, {"type": "Feature", "properties": {"norad_id": 28521, "name": "COSMOS 2414", "group": "musson", "lat": -27.411501734748402, "lon": 10.047142580556285, "alt_km": 927.4124215434103, "timestamp": "2025-12-10T11:33:53.655271+00:00", "meta": {"OBJECT_NAME": "COSMOS 2414", "OBJECT_ID": "2005-002A", "EPOCH": "2025-12-10T01:55:12.551232", "MEAN_MOTION": 13.87902448, "ECCENTRICITY": 0.0040736, "INCLINATION": 82.9494, "RA_OF_ASC_NODE": 186.6712, "ARG_OF_PERICENTER": 147.1554, "MEAN_ANOMALY": 213.2153, "EPHEMERIS_TYPE": 0, "CLASSIFICATION_TYPE": "U", "NORAD_CAT_ID": 28521, "ELEMENT_SET_NO": 999, "REV_AT_EPOCH": 5758, "BSTAR": 6.9299e-05, "MEAN_MOTION_DOT": 9.9e-07, "MEAN_MOTION_DDOT": 0}, "tle": {"line1": "1 28521U 05002A   25344.08000638  .00000099  00000+0  69299-4 0  9994", "line2": "2 28521  82.9494 186.6712 0040736 147.1554 213.2153 13.87902448 57582"}}, "geometry": {"type": "Point", "coordinates": [10.047142580556285, -27.411501734748402]}}, {"type": "Feature", "properties": {"norad_id": 32052, "name": "COSMOS 2429", "group": "musson", "lat": 81.35332052037727, "lon": 39.091632002942454, "alt_km": 951.7946188866827, "timestamp": "2025-12-10T11:33:53.655282+00:00", "meta": {"OBJECT_NAME": "COSMOS 2429", "OBJECT_ID": "2007-038A", "EPOCH": "2025-12-10T02:25:30.364896", "MEAN_MOTION": 13.75148997, "ECCENTRICITY": 0.0039369, "INCLINATION": 82.9802, "RA_OF_ASC_NODE": 345.2542, "ARG_OF_PERICENTER": 45.0578, "MEAN_ANOMALY": 315.376, "EPHEMERIS_TYPE": 0, "CLASSIFICATION_TYPE": "U", "NORAD_CAT_ID": 32052, "ELEMENT_SET_NO": 999, "REV_AT_EPOCH": 91566, "BSTAR": 6.9226e-05, "MEAN_MOTION_DOT": 8.2e-07, "MEAN_MOTION_DDOT": 0}, "tle": {"line1": "1 32052U 07038A   25344.10104589  .00000082  00000+0  69226-4 0  9994", "line2": "2 32052  82.9802 345.2542 0039369  45.0578 315.3760 13.75148997915663"}}, "geometry": {"type": "Point", "coordinates": [39.091632002942454, 81.35332052037727]}}, {"type": "Feature", "properties": {"norad_id": 35635, "name": "COSMOS 2454", "group": "musson", "lat": -60.244204696647564, "lon": 2.848041653074326, "alt_km": 950.2054688396593, "timestamp": "2025-12-10T11:33:53.655292+00:00", "meta": {"OBJECT_NAME": "COSMOS 2454", "OBJECT_ID": "2009-039A", "EPOCH": "2025-12-10T00:48:50.279328", "MEAN_MOTION": 13.89928013, "ECCENTRICITY": 0.002048, "INCLINATION": 82.9554, "RA_OF_ASC_NODE": 170.6962, "ARG_OF_PERICENTER": 80.9665, "MEAN_ANOMALY": 79.7408, "EPHEMERIS_TYPE": 0, "CLASSIFICATION_TYPE": "U", "NORAD_CAT_ID": 35635, "ELEMENT_SET_NO": 999, "REV_AT_EPOCH": 83112, "BSTAR": 5.7382e-05, "MEAN_MOTION_DOT": 8.7e-07, "MEAN_MOTION_DDOT": 0}, "tle": {"line1": "1 35635U 09039A   25344.03391527  .00000087  00000+0  57382-4 0  9994", "line2": "2 35635  82.9554 170.6962 0020480  80.9665  79.7408 13.89928013831120"}}, "geometry": {"type": "Point", "coordinates": [2.848041653074326, -60.244204696647564]}}, {"type": "Feature", "properties": {"norad_id": 36519, "name": "COSMOS 2463", "group": "musson", "lat": 68.60850620999229, "lon": 46.75567624074322, "alt_km": 1005.1859528355462, "timestamp": "2025-12-10T11:33:53.655302+00:00", "meta": {"OBJECT_NAME": "COSMOS 2463", "OBJECT_ID": "2010-017A", "EPOCH": "2025-12-10T04:30:43.905888", "MEAN_MOTION": 13.71648905, "ECCENTRICITY": 0.0034841, "INCLINATION": 82.9615, "RA_OF_ASC_NODE": 28.5878, "ARG_OF_PERICENTER": 295.396, "MEAN_ANOMALY": 123.8475, "EPHEMERIS_TYPE": 0, "CLASSIFICATION_TYPE": "U", "NORAD_CAT_ID": 36519, "ELEMENT_SET_NO": 999, "REV_AT_EPOCH": 78202, "BSTAR": 6.2693e-05, "MEAN_MOTION_DOT": 7.1e-07, "MEAN_MOTION_DDOT": 0}, "tle": {"line1": "1 36519U 10017A   25344.18800817  .00000071  00000+0  62693-4 0  9991", "line2": "2 36519  82.9615  28.5878 0034841 295.3960 123.8475 13.71648905782022"}}, "geometry": {"type": "Point", "coordinates": [46.75567624074322, 68.60850620999229]}}]}